[{"OBJECT_NAME":"STARLINK-5918","OBJECT_ID":"2023-037AB","EPOCH":"2026-03-09T23:23:27.567168","MEAN_MOTION":14.98331665,"ECCENTRICITY":0.00026174,"INCLINATION":69.9983,"RA_OF_ASC_NODE":283.7065,"ARG_OF_PERICENTER":269.9729,"MEAN_ANOMALY":90.113,"EPHEMERIS_TYPE":0,"CLASSIFICATION_TYPE":"U","NORAD_CAT_ID":55939,"ELEMENT_SET_NO":999,"REV_AT_EPOCH":16402,"BSTAR":6.8994491e-5,"MEAN_MOTION_DOT":7.3e-6,"MEAN_MOTION_DDOT":0},{"OBJECT_NAME":"ICEYE-X48","OBJECT_ID":"2025-052AV","EPOCH":"2026-03-09T16:59:01.566528","MEAN_MOTION":14.97356709,"ECCENTRICITY":0.00026878,"INCLINATION":97.6979,"RA_OF_ASC_NODE":322.3976,"ARG_OF_PERICENTER":141.7433,"MEAN_ANOMALY":218.398,"EPHEMERIS_TYPE":0,"CLASSIFICATION_TYPE":"U","NORAD_CAT_ID":63253,"ELEMENT_SET_NO":999,"REV_AT_EPOCH":5378,"BSTAR":0.00039588576,"MEAN_MOTION_DOT":4.541e-5,"MEAN_MOTION_DDOT":0}]
